CCSDS_OMM_VERS = 2.0
CREATION_DATE  = 
ORIGINATOR     = 

OBJECT_NAME    = COSMOS 1933
OBJECT_ID      = 1988-020A
CENTER_NAME    = EARTH
REF_FRAME      = TEME
TIME_SYSTEM    = UTC
MEAN_ELEMENT_THEORY = SGP/SGP4

EPOCH          = 2026-02-18T16:08:19.883904
MEAN_MOTION    = 15.17810688
ECCENTRICITY   = .0002736
INCLINATION    = 82.5104
RA_OF_ASC_NODE = 269.7300
ARG_OF_PERICENTER = 269.0692
MEAN_ANOMALY   = 91.0228

EPHEMERIS_TYPE = 0
CLASSIFICATION_TYPE = U
NORAD_CAT_ID   = 18958
ELEMENT_SET_NO = 999
REV_AT_EPOCH   = 4734
BSTAR          = .18067E-3
MEAN_MOTION_DOT = .3682E-4
MEAN_MOTION_DDOT = 0

CCSDS_OMM_VERS = 2.0
CREATION_DATE  = 
ORIGINATOR     = 

OBJECT_NAME    = SL-3 R/B
OBJECT_ID      = 1988-032B
CENTER_NAME    = EARTH
REF_FRAME      = TEME
TIME_SYSTEM    = UTC
MEAN_ELEMENT_THEORY = SGP/SGP4

EPOCH          = 2026-02-18T20:04:07.198752
MEAN_MOTION    = 15.19660108
ECCENTRICITY   = .002444
INCLINATION    = 97.5163
RA_OF_ASC_NODE = 33.1615
ARG_OF_PERICENTER = 302.3459
MEAN_ANOMALY   = 57.5409

EPHEMERIS_TYPE = 0
CLASSIFICATION_TYPE = U
NORAD_CAT_ID   = 19046
ELEMENT_SET_NO = 999
REV_AT_EPOCH   = 4924
BSTAR          = .2654E-3
MEAN_MOTION_DOT = .5634E-4
MEAN_MOTION_DDOT = 0

CCSDS_OMM_VERS = 2.0
CREATION_DATE  = 
ORIGINATOR     = 

OBJECT_NAME    = SL-16 R/B
OBJECT_ID      = 1988-039B
CENTER_NAME    = EARTH
REF_FRAME      = TEME
TIME_SYSTEM    = UTC
MEAN_ELEMENT_THEORY = SGP/SGP4

EPOCH          = 2026-02-18T14:28:24.546432
MEAN_MOTION    = 14.19613776
ECCENTRICITY   = .0021573
INCLINATION    = 71.0139
RA_OF_ASC_NODE = 108.9098
ARG_OF_PERICENTER = 3.0500
MEAN_ANOMALY   = 357.0753

EPHEMERIS_TYPE = 0
CLASSIFICATION_TYPE = U
NORAD_CAT_ID   = 19120
ELEMENT_SET_NO = 999
REV_AT_EPOCH   = 95567
BSTAR          = .23708E-4
MEAN_MOTION_DOT = .2E-7
MEAN_MOTION_DDOT = 0

CCSDS_OMM_VERS = 2.0
CREATION_DATE  = 
ORIGINATOR     = 

OBJECT_NAME    = COSMOS 1953
OBJECT_ID      = 1988-050A
CENTER_NAME    = EARTH
REF_FRAME      = TEME
TIME_SYSTEM    = UTC
MEAN_ELEMENT_THEORY = SGP/SGP4

EPOCH          = 2026-02-18T20:02:10.236480
MEAN_MOTION    = 15.28147513
ECCENTRICITY   = .0011361
INCLINATION    = 82.5110
RA_OF_ASC_NODE = 177.1993
ARG_OF_PERICENTER = 185.3196
MEAN_ANOMALY   = 174.7925

EPHEMERIS_TYPE = 0
CLASSIFICATION_TYPE = U
NORAD_CAT_ID   = 19210
ELEMENT_SET_NO = 999
REV_AT_EPOCH   = 3490
BSTAR          = .33997E-3
MEAN_MOTION_DOT = .9377E-4
MEAN_MOTION_DDOT = 0

CCSDS_OMM_VERS = 2.0
CREATION_DATE  = 
ORIGINATOR     = 

OBJECT_NAME    = SL-8 R/B
OBJECT_ID      = 1988-053B
CENTER_NAME    = EARTH
REF_FRAME      = TEME
TIME_SYSTEM    = UTC
MEAN_ELEMENT_THEORY = SGP/SGP4

EPOCH          = 2026-02-18T19:55:41.930688
MEAN_MOTION    = 14.38903754
ECCENTRICITY   = .0020819
INCLINATION    = 74.0484
RA_OF_ASC_NODE = 147.2267
ARG_OF_PERICENTER = 329.6381
MEAN_ANOMALY   = 169.9660

EPHEMERIS_TYPE = 0
CLASSIFICATION_TYPE = U
NORAD_CAT_ID   = 19257
ELEMENT_SET_NO = 999
REV_AT_EPOCH   = 97388
BSTAR          = .79293E-4
MEAN_MOTION_DOT = .218E-5
MEAN_MOTION_DDOT = 0

CCSDS_OMM_VERS = 2.0
CREATION_DATE  = 
ORIGINATOR     = 

OBJECT_NAME    = COSMOS 1975
OBJECT_ID      = 1988-093A
CENTER_NAME    = EARTH
REF_FRAME      = TEME
TIME_SYSTEM    = UTC
MEAN_ELEMENT_THEORY = SGP/SGP4

EPOCH          = 2026-02-18T17:34:31.365408
MEAN_MOTION    = 15.27741765
ECCENTRICITY   = .0010571
INCLINATION    = 82.5221
RA_OF_ASC_NODE = 136.7069
ARG_OF_PERICENTER = 232.3624
MEAN_ANOMALY   = 127.6657

EPHEMERIS_TYPE = 0
CLASSIFICATION_TYPE = U
NORAD_CAT_ID   = 19573
ELEMENT_SET_NO = 999
REV_AT_EPOCH   = 1651
BSTAR          = .29766E-3
MEAN_MOTION_DOT = .811E-4
MEAN_MOTION_DDOT = 0

CCSDS_OMM_VERS = 2.0
CREATION_DATE  = 
ORIGINATOR     = 

OBJECT_NAME    = SL-14 R/B
OBJECT_ID      = 1988-093B
CENTER_NAME    = EARTH
REF_FRAME      = TEME
TIME_SYSTEM    = UTC
MEAN_ELEMENT_THEORY = SGP/SGP4

EPOCH          = 2026-02-18T13:06:01.022688
MEAN_MOTION    = 14.85632731
ECCENTRICITY   = .0022303
INCLINATION    = 82.5279
RA_OF_ASC_NODE = 60.0193
ARG_OF_PERICENTER = 100.7419
MEAN_ANOMALY   = 23.0625

EPHEMERIS_TYPE = 0
CLASSIFICATION_TYPE = U
NORAD_CAT_ID   = 19574
ELEMENT_SET_NO = 999
REV_AT_EPOCH   = 99819
BSTAR          = .49146E-4
MEAN_MOTION_DOT = .452E-5
MEAN_MOTION_DDOT = 0

CCSDS_OMM_VERS = 2.0
CREATION_DATE  = 
ORIGINATOR     = 

OBJECT_NAME    = SL-16 R/B
OBJECT_ID      = 1988-102B
CENTER_NAME    = EARTH
REF_FRAME      = TEME
TIME_SYSTEM    = UTC
MEAN_ELEMENT_THEORY = SGP/SGP4

EPOCH          = 2026-02-18T20:00:12.535488
MEAN_MOTION    = 14.16152042
ECCENTRICITY   = .0012939
INCLINATION    = 70.9994
RA_OF_ASC_NODE = 191.1684
ARG_OF_PERICENTER = 31.2043
MEAN_ANOMALY   = 328.9845

EPHEMERIS_TYPE = 0
CLASSIFICATION_TYPE = U
NORAD_CAT_ID   = 19650
ELEMENT_SET_NO = 999
REV_AT_EPOCH   = 92422
BSTAR          = .11118E-4
MEAN_MOTION_DOT = -.26E-6
MEAN_MOTION_DDOT = 0

CCSDS_OMM_VERS = 2.0
CREATION_DATE  = 
ORIGINATOR     = 

OBJECT_NAME    = INTERCOSMOS 24
OBJECT_ID      = 1989-080A
CENTER_NAME    = EARTH
REF_FRAME      = TEME
TIME_SYSTEM    = UTC
MEAN_ELEMENT_THEORY = SGP/SGP4

EPOCH          = 2026-02-18T15:50:58.198848
MEAN_MOTION    = 12.59528550
ECCENTRICITY   = .11874
INCLINATION    = 82.6052
RA_OF_ASC_NODE = 116.7928
ARG_OF_PERICENTER = 337.0240
MEAN_ANOMALY   = 18.1651

EPHEMERIS_TYPE = 0
CLASSIFICATION_TYPE = U
NORAD_CAT_ID   = 20261
ELEMENT_SET_NO = 999
REV_AT_EPOCH   = 66440
BSTAR          = .16492E-3
MEAN_MOTION_DOT = .564E-5
MEAN_MOTION_DDOT = 0

CCSDS_OMM_VERS = 2.0
CREATION_DATE  = 
ORIGINATOR     = 

OBJECT_NAME    = SL-14 R/B
OBJECT_ID      = 1989-080C
CENTER_NAME    = EARTH
REF_FRAME      = TEME
TIME_SYSTEM    = UTC
MEAN_ELEMENT_THEORY = SGP/SGP4

EPOCH          = 2026-02-18T19:57:07.388928
MEAN_MOTION    = 12.50467829
ECCENTRICITY   = .1229756
INCLINATION    = 82.5959
RA_OF_ASC_NODE = 185.2903
ARG_OF_PERICENTER = 227.8609
MEAN_ANOMALY   = 121.1448

EPHEMERIS_TYPE = 0
CLASSIFICATION_TYPE = U
NORAD_CAT_ID   = 20262
ELEMENT_SET_NO = 999
REV_AT_EPOCH   = 65779
BSTAR          = .14764E-3
MEAN_MOTION_DOT = .492E-5
MEAN_MOTION_DDOT = 0

CCSDS_OMM_VERS = 2.0
CREATION_DATE  = 
ORIGINATOR     = 

OBJECT_NAME    = DELTA 1 R/B
OBJECT_ID      = 1989-089B
CENTER_NAME    = EARTH
REF_FRAME      = TEME
TIME_SYSTEM    = UTC
MEAN_ELEMENT_THEORY = SGP/SGP4

EPOCH          = 2026-02-18T13:59:55.462848
MEAN_MOTION    = 14.50646521
ECCENTRICITY   = .0069008
INCLINATION    = 97.0718
RA_OF_ASC_NODE = 260.0590
ARG_OF_PERICENTER = 181.8455
MEAN_ANOMALY   = 178.2499

EPHEMERIS_TYPE = 0
CLASSIFICATION_TYPE = U
NORAD_CAT_ID   = 20323
ELEMENT_SET_NO = 999
REV_AT_EPOCH   = 89296
BSTAR          = .86222E-4
MEAN_MOTION_DOT = .314E-5
MEAN_MOTION_DDOT = 0

CCSDS_OMM_VERS = 2.0
CREATION_DATE  = 
ORIGINATOR     = 

OBJECT_NAME    = ARIANE 40 R/B
OBJECT_ID      = 1990-005H
CENTER_NAME    = EARTH
REF_FRAME      = TEME
TIME_SYSTEM    = UTC
MEAN_ELEMENT_THEORY = SGP/SGP4

EPOCH          = 2026-02-18T18:32:56.972832
MEAN_MOTION    = 14.39857225
ECCENTRICITY   = .0008967
INCLINATION    = 98.3126
RA_OF_ASC_NODE = 110.9940
ARG_OF_PERICENTER = 259.6930
MEAN_ANOMALY   = 100.3248

EPHEMERIS_TYPE = 0
CLASSIFICATION_TYPE = U
NORAD_CAT_ID   = 20443
ELEMENT_SET_NO = 999
REV_AT_EPOCH   = 89008
BSTAR          = .90163E-4
MEAN_MOTION_DOT = .241E-5
MEAN_MOTION_DDOT = 0

