COSMOS 1933             
1 18958U 88020A   26049.67245236  .00003682  00000+0  18067-3 0  9998
2 18958  82.5104 269.7300 0002736 269.0692  91.0228 15.17810688 47347
SL-3 R/B                
1 19046U 88032B   26049.83619443  .00005634  00000+0  26540-3 0  9997
2 19046  97.5163  33.1615 0024440 302.3459  57.5409 15.19660108 49248
SL-16 R/B               
1 19120U 88039B   26049.60306188  .00000002  00000+0  23708-4 0  9999
2 19120  71.0139 108.9098 0021573   3.0500 357.0753 14.19613776955674
COSMOS 1953             
1 19210U 88050A   26049.83484070  .00009377  00000+0  33997-3 0  9998
2 19210  82.5110 177.1993 0011361 185.3196 174.7925 15.28147513 34902
SL-8 R/B                
1 19257U 88053B   26049.83034642  .00000218  00000+0  79293-4 0  9993
2 19257  74.0484 147.2267 0020819 329.6381 169.9660 14.38903754973880
COSMOS 1975             
1 19573U 88093A   26049.73230747  .00008110  00000+0  29766-3 0  9999
2 19573  82.5221 136.7069 0010571 232.3624 127.6657 15.27741765 16517
SL-14 R/B               
1 19574U 88093B   26049.54584517  .00000452  00000+0  49146-4 0  9992
2 19574  82.5279  60.0193 0022303 100.7419  23.0625 14.85632731998196
SL-16 R/B               
1 19650U 88102B   26049.83347842 -.00000026  00000+0  11118-4 0  9994
2 19650  70.9994 191.1684 0012939  31.2043 328.9845 14.16152042924222
INTERCOSMOS 24          
1 20261U 89080A   26049.66039582  .00000564  00000+0  16492-3 0  9995
2 20261  82.6052 116.7928 1187400 337.0240  18.1651 12.59528550664404
SL-14 R/B               
1 20262U 89080C   26049.83133552  .00000492  00000+0  14764-3 0  9997
2 20262  82.5959 185.2903 1229756 227.8609 121.1448 12.50467829657795
DELTA 1 R/B             
1 20323U 89089B   26049.58328082  .00000314  00000+0  86222-4 0  9992
2 20323  97.0718 260.0590 0069008 181.8455 178.2499 14.50646521892969
ARIANE 40 R/B           
1 20443U 90005H   26049.77288163  .00000241  00000+0  90163-4 0  9999
2 20443  98.3126 110.9940 0008967 259.6930 100.3248 14.39857225890081
